satname,norad_id,inclination_deg,eccentricity,mean_motion_rev_per_day,perigee_km,apogee_km,l1,l2
STARLINK-1008,44714,53.1567,0.0002019,15.31058959,471.26839758030746,474.0347460055973,1 44714U 19074B   26047.81713325  .00001426  00000+0  58800-4 0  9997,2 44714  53.1567 275.8376 0002019 126.8401 233.2786 15.31058959345673
STARLINK-1012,44718,53.1563,0.0001082,15.30208181,474.44911248586595,475.93217258771074,1 44718U 19074F   26047.78613313  .00007741  00000+0  27313-3 0  9993,2 44718  53.1563 275.9031 0001082 108.7165 251.3953 15.30208181345666
STARLINK-1017,44723,53.0478,0.0003389,15.22253981,496.71291711623144,501.3742701225865,1 44723U 19074L   26047.80758080  .00052037  00000+0  22315-2 0  9997,2 44723  53.0478 267.6522 0003389 115.8723 244.2623 15.22253981345787
STARLINK-1019,44724,53.0441,0.0008187,15.75389106,338.02113899875894,349.0271869870421,1 44724U 19074M   26047.91668981  .00109746  00000+0  70486-3 0  9993,2 44724  53.0441 240.7215 0008187 127.0619 276.9428 15.75389106  5953
STARLINK-1020,44725,53.0876,0.0001818,15.14975037,519.800073622574,522.3086195962014,1 44725U 19074N   26047.91668981  .00043392  00000+0  23006-2 0  9993,2 44725  53.0876 299.7105 0001818  69.2322  14.6538 15.14975037  5721
STARLINK-1031,44736,53.0419,0.0003199,15.82073901,322.4324179492387,326.7208141207784,1 44736U 19074Z   26047.91668981  .00313686  00000+0  14525-2 0  9997,2 44736  53.0419 225.2672 0003199 180.7558 219.1865 15.82073901  6026
STARLINK-1036,44741,53.053,0.0005577,15.5146485,408.6612724955712,416.23549143061337,1 44741U 19074AE  26047.64046377  .00096282  00000+0  15908-2 0  9998,2 44741  53.0530 290.0870 0005577 139.4731 220.6694 15.51464850345455
STARLINK-1039,44744,53.0448,0.0006978,15.19726225,501.8631270502492,511.47155999206643,1 44744U 19074AH  26047.71452293  .00026374  00000+0  12288-2 0  9990,2 44744  53.0448 311.3668 0006978 103.4610 256.7162 15.19726225345160
STARLINK-1042,44747,53.0434,0.0002878,15.48692631,418.592909173949,422.506233164313,1 44747U 19074AL  26047.75177195  .00027347  00000+0  50879-3 0  9992,2 44747  53.0434 195.1610 0002878 109.3364 250.7955 15.48692631346822
STARLINK-1043,44748,53.0534,0.0002934,15.52217082,408.2625984282149,412.2460264503543,1 44748U 19074AM  26046.96870362  .00030917  00000+0  50672-3 0  9999,2 44748  53.0534 299.1744 0002934  75.5370 284.5964 15.52217082345272
STARLINK-1046,44751,53.0548,0.0007745,15.41949441,435.07538728513464,445.63723342287176,1 44751U 19074AQ  26047.74974071  .00018440  00000+0  43484-3 0  9992,2 44751  53.0548 310.2250 0007745 108.2626 251.9222 15.41949441345185
STARLINK-1047,44752,53.0678,0.000457,15.32057458,466.5451887948748,472.80408863265893,1 44752U 19074AR  26047.82021499  .00010738  00000+0  35333-3 0  9995,2 44752  53.0678 243.4590 0004570 139.7608 220.3732 15.32057458346147
STARLINK-1048,44753,53.0537,0.0005154,15.50323887,412.27808256230037,419.28125186286434,1 44753U 19074AS  26047.77852957  .00025309  00000+0  44528-3 0  9997,2 44753  53.0537 269.3990 0005154 120.7975 239.3541 15.50323887345755
STARLINK-1053,44758,53.03,0.0002931,15.82520209,321.3521453333842,325.2805372820585,1 44758U 19074AX  26047.91668981  .00151284  00000+0  70082-3 0  9996,2 44758  53.0300 188.7657 0002931 331.1847 164.5794 15.82520209  5987
STARLINK-1063,44768,53.1593,0.0001135,15.29132629,477.62568311625637,479.1821179006729,1 44768U 19074BH  26047.39433751 -.00518181  00000+0 -19361-1 0  9990,2 44768  53.1593 318.3124 0001135  94.1984 265.9146 15.29132629345054
STARLINK-1067,44771,53.054,0.0001332,15.52930435,407.2713427747067,409.0792163659853,1 44771U 19074BL  26047.74326242  .00103469  00000+0  16208-2 0  9994,2 44771  53.0540 305.4514 0001332 123.0613 237.0525 15.52930435345259
STARLINK-1068,44772,53.051,0.0005456,15.58775512,387.5064897632965,394.8931901230417,1 44772U 19074BM  26047.81498259  .00114009  00000+0  14362-2 0  9992,2 44772  53.0510 281.7241 0005456 138.8504 221.2920 15.58775512345583
STARLINK-1112,44925,53.0423,0.0002913,15.93178282,291.45183115060354,295.33866583857707,1 44925U 20001M   26047.91668981  .00330047  52950-4  92201-3 0  9993,2 44925  53.0423 348.4377 0002913 100.6579  64.9297 15.93178282  6045
STARLINK-1114,44927,53.051,0.0007973,15.46553741,421.39094485070837,432.2421237565086,1 44927U 20001P   26047.57090323  .00073274  00000+0  14436-2 0  9999,2 44927  53.0510  70.4391 0007973  35.5898 324.5639 15.46553741336825
STARLINK-1123,44930,53.0529,0.0001365,15.06400771,546.263885179721,548.1545046909387,1 44930U 20001S   26047.49236696  .00002747  00000+0  20322-3 0  9998,2 44930  53.0529  81.7789 0001365  94.0568 266.0577 15.06400771336650
STARLINK-1094,44941,53.1608,0.0001286,15.30191701,474.35850458664936,476.1211931121743,1 44941U 20001AD  26047.32554523  .00000467  00000+0  27897-4 0  9996,2 44941  53.1608  58.7965 0001286  97.3438 262.7709 15.30191701336966
STARLINK-1122,44949,53.1606,0.0001388,15.30203378,474.25373947148,476.1562272060546,1 44949U 20001AM  26047.54782830 -.00001301  00000+0 -31805-4 0  9996,2 44949  53.1606  57.8085 0001388  83.5344 276.5814 15.30203378336998
STARLINK-1080,44961,53.054,0.0008265,15.43573438,429.9414388790083,441.2045014596979,1 44961U 20001AZ  26047.33774779  .00022748  00000+0  50565-3 0  9999,2 44961  53.0540  29.9193 0008265  38.0623 322.0964 15.43573438337371
STARLINK-1090,44968,53.0543,0.0001283,15.06393563,546.3427617352754,548.1198112375887,1 44968U 20001BG  26047.46287732 -.00001178  00000+0 -60220-4 0  9994,2 44968  53.0543  41.9097 0001283  97.1818 262.9317 15.06393563337218
STARLINK-1132,45044,53.1587,0.0005675,15.40823634,439.8058269871599,447.548586111594,1 45044U 20006A   26047.85613039  .00078110  00000+0  18665-2 0  9993,2 45044  53.1587 352.5227 0005675 111.8223 248.3386 15.40823634333712
STARLINK-1131,45047,53.1575,0.0001752,15.29886986,474.9489610949895,477.35070320097384,1 45047U 20006D   26047.56927694  .00126147  00000+0  42402-2 0  9999,2 45047  53.1575  19.0853 0001752  94.0135 266.1066 15.29886986333313
STARLINK-1134,45048,53.0347,0.0010142,15.41699975,434.17577263588464,448.0078964038239,1 45048U 20006E   26047.82817357  .00067394  00000+0  15658-2 0  9994,2 45048  53.0347 337.3316 0010142 104.6815 255.5314 15.41699975333925
STARLINK-1156,45054,53.1574,0.0001444,15.29368595,476.70863674937027,478.68860207625676,1 45054U 20006L   26047.33137235  .00006334  00000+0  23154-3 0  9995,2 45054  53.1574  20.1711 0001444  87.8279 272.2887 15.29368595333278
STARLINK-1159,45057,53.0509,0.0006587,15.75961504,337.47001519332025,346.3229873278806,1 45057U 20006P   26047.91668981  .00149084  00000+0  92877-3 0  9997,2 45057  53.0509 338.8337 0006587  76.8871 200.9497 15.75961504  5956
STARLINK-1166,45060,53.0542,0.000615,15.43010651,433.03820917793655,441.4211101693354,1 45060U 20006S   26047.79777708  .00069990  00000+0  15572-2 0  9998,2 45060  53.0542  12.0172 0006150  73.0212 287.1467 15.43010651333433
STARLINK-1169,45061,53.1567,0.0001321,15.29854431,475.3416062470287,477.15253451842364,1 45061U 20006T   26047.23633456  .00102566  00000+0  34643-2 0  9996,2 45061  53.1567  20.6438 0001321 114.5665 245.5474 15.29854431333263
STARLINK-1171,45062,53.0488,0.0002555,15.53482423,404.83413719881355,408.3011212643505,1 45062U 20006U   26047.91668981  .00073944  00000+0  11417-2 0  9994,2 45062  53.0488 350.0189 0002555 336.8058 129.6766 15.53482423  5855
STARLINK-1133,45064,53.1611,0.0001677,15.30215094,474.02070224228646,476.31930141069915,1 45064U 20006W   26047.83002770  .00003252  00000+0  12184-3 0  9993,2 45064  53.1611 354.6924 0001677  80.6506 279.4685 15.30215094333681
STARLINK-1167,45071,53.1633,0.0001843,15.29363171,476.45129573103077,478.97836271528195,1 45071U 20006AD  26047.25839334  .00004444  00000+0  16623-3 0  9997,2 45071  53.1633 357.2730 0001843  56.4727 303.6449 15.29363171333594
STARLINK-1168,45072,53.1624,0.0001547,15.29343919,476.711756081364,478.8329744389757,1 45072U 20006AE  26047.26821030  .00000215  00000+0  19788-4 0  9991,2 45072  53.1624 357.2871 0001547  84.6588 275.4588 15.29343919333598
STARLINK-1172,45074,53.1588,0.0001265,15.30225666,474.271497098076,476.00537578349486,1 45074U 20006AG  26047.15369996 -.00030691  00000+0 -10275-2 0  9992,2 45074  53.1588 357.8572 0001265  78.0274 282.0868 15.30225666333572
STARLINK-1153,45080,53.1607,0.0001452,15.2935354,476.7481381687785,478.7390858985118,1 45080U 20006AN  26047.83095775  .00000562  00000+0  31808-4 0  9994,2 45080  53.1607 354.5335 0001452  86.9724 273.1442 15.29353540333680
STARLINK-1151,45081,53.053,0.0012808,15.55396561,392.3174015886116,409.6828392362595,1 45081U 20006AP  26047.23295310  .00098855  00000+0  14121-2 0  9995,2 45081  53.0530 344.2447 0012808  75.4209 284.8221 15.55396561333776
STARLINK-1185,45087,53.1363,0.0001398,15.25096403,489.53573445546135,491.4562042336902,1 45087U 20006AV  26047.91668981  .00770771  00000+0  28183-1 0  9990,2 45087  53.1363 338.7528 0001398  90.5794 199.9456 15.25096403  5832
STARLINK-1183,45088,53.1341,0.0001948,15.24820069,489.98761371584715,492.66395641690997,1 45088U 20006AW  26047.91668981  .00902406  00000+0  33283-1 0  9990,2 45088  53.1341 338.9782 0001948  74.4021 332.5617 15.24820069  5834
STARLINK-1152,45096,53.041,0.0007357,15.35661724,453.92564934361235,463.9857475400986,1 45096U 20006BE  26047.13957327  .00057931  00000+0  16438-2 0  9996,2 45096  53.0410 307.9035 0007357 117.6976 242.4773 15.35661724334273
STARLINK-1184,45098,53.055,0.0006052,15.09554378,533.375302139415,541.7460626141647,1 45098U 20006BG  26047.21884096  .00023358  00000+0  14517-2 0  9991,2 45098  53.0550 342.3218 0006052  74.4926 285.6733 15.09554378333790
STARLINK-1193,45100,53.0545,0.0005461,15.48533581,417.3020753138526,424.72810922903136,1 45100U 20006BJ  26047.78202475  .00084447  00000+0  15508-2 0  9999,2 45100  53.0545 331.0063 0005461 126.2754 233.8758 15.48533581334002
